{"fetched_at":"2026-07-16T17:46:10.611Z","source":"https://celestrak.org/NORAD/elements/gp.php?GROUP=spire&FORMAT=JSON","constellation":"spire","records":[{"OBJECT_NAME":"LEMUR-2-HUBBLE-4","OBJECT_ID":"2025-135AP","EPOCH":"2026-07-16T06:43:13.111104","CLASSIFICATION_TYPE":"U","MEAN_MOTION":14.93687646,"ECCENTRICITY":0.00027539,"INCLINATION":97.772,"RA_OF_ASC_NODE":310.8494,"ARG_OF_PERICENTER":159.3037,"MEAN_ANOMALY":200.8294,"EPHEMERIS_TYPE":0,"NORAD_CAT_ID":64565,"ELEMENT_SET_NO":999,"REV_AT_EPOCH":5821,"BSTAR":0.000073057448,"MEAN_MOTION_DOT":0.00000716,"MEAN_MOTION_DDOT":0},{"OBJECT_NAME":"LEMUR-2-SEJONG-2","OBJECT_ID":"2025-135BL","EPOCH":"2026-07-16T07:37:38.648352","CLASSIFICATION_TYPE":"U","MEAN_MOTION":14.96916393,"ECCENTRICITY":0.00040418,"INCLINATION":97.7709,"RA_OF_ASC_NODE":312.1461,"ARG_OF_PERICENTER":213.459,"MEAN_ANOMALY":146.6377,"EPHEMERIS_TYPE":0,"NORAD_CAT_ID":64586,"ELEMENT_SET_NO":999,"REV_AT_EPOCH":5830,"BSTAR":0.00018629451,"MEAN_MOTION_DOT":0.0000208,"MEAN_MOTION_DDOT":0},{"OBJECT_NAME":"LEMUR-2-HUBBLE-5","OBJECT_ID":"2025-135BT","EPOCH":"2026-07-16T06:55:23.356992","CLASSIFICATION_TYPE":"U","MEAN_MOTION":14.94215156,"ECCENTRICITY":0.00043851,"INCLINATION":97.7741,"RA_OF_ASC_NODE":311.528,"ARG_OF_PERICENTER":230.7774,"MEAN_ANOMALY":129.3057,"EPHEMERIS_TYPE":0,"NORAD_CAT_ID":64840,"ELEMENT_SET_NO":999,"REV_AT_EPOCH":5825,"BSTAR":0.000052866934,"MEAN_MOTION_DOT":0.00000509,"MEAN_MOTION_DDOT":0},{"OBJECT_NAME":"LEMUR-2-KARENDARRELL","OBJECT_ID":"2025-135BU","EPOCH":"2026-07-15T19:07:08.897664","CLASSIFICATION_TYPE":"U","MEAN_MOTION":15.00505264,"ECCENTRICITY":0.0012499,"INCLINATION":97.7719,"RA_OF_ASC_NODE":312.9676,"ARG_OF_PERICENTER":102.9205,"MEAN_ANOMALY":257.3415,"EPHEMERIS_TYPE":0,"NORAD_CAT_ID":64841,"ELEMENT_SET_NO":999,"REV_AT_EPOCH":5830,"BSTAR":0.00034587499,"MEAN_MOTION_DOT":0.00004305,"MEAN_MOTION_DDOT":0},{"OBJECT_NAME":"LEMUR-2-LUCILLE-ROSE","OBJECT_ID":"2025-135BV","EPOCH":"2026-07-16T07:17:09.185856","CLASSIFICATION_TYPE":"U","MEAN_MOTION":15.00495624,"ECCENTRICITY":0.00150319,"INCLINATION":97.7711,"RA_OF_ASC_NODE":313.5095,"ARG_OF_PERICENTER":185.6878,"MEAN_ANOMALY":174.4177,"EPHEMERIS_TYPE":0,"NORAD_CAT_ID":65403,"ELEMENT_SET_NO":999,"REV_AT_EPOCH":5300,"BSTAR":0.00025192648,"MEAN_MOTION_DOT":0.00003119,"MEAN_MOTION_DDOT":0},{"OBJECT_NAME":"LEMUR-2-AFFIE-WAUWIE","OBJECT_ID":"2025-248C","EPOCH":"2026-07-15T08:51:52.657344","CLASSIFICATION_TYPE":"U","MEAN_MOTION":15.2825643,"ECCENTRICITY":0.00087669,"INCLINATION":45.3887,"RA_OF_ASC_NODE":322.1687,"ARG_OF_PERICENTER":251.4181,"MEAN_ANOMALY":108.5756,"EPHEMERIS_TYPE":0,"NORAD_CAT_ID":66295,"ELEMENT_SET_NO":999,"REV_AT_EPOCH":3890,"BSTAR":0.00046577019,"MEAN_MOTION_DOT":0.00012792,"MEAN_MOTION_DDOT":0},{"OBJECT_NAME":"OTTER SDM","OBJECT_ID":"2025-276N","EPOCH":"2026-07-16T03:36:52.500960","CLASSIFICATION_TYPE":"U","MEAN_MOTION":15.20063289,"ECCENTRICITY":0.00043382,"INCLINATION":97.4204,"RA_OF_ASC_NODE":270.1502,"ARG_OF_PERICENTER":249.3545,"MEAN_ANOMALY":110.7225,"EPHEMERIS_TYPE":0,"NORAD_CAT_ID":66678,"ELEMENT_SET_NO":999,"REV_AT_EPOCH":3481,"BSTAR":0.00016749566,"MEAN_MOTION_DOT":0.00003546,"MEAN_MOTION_DDOT":0},{"OBJECT_NAME":"LEMUR-2-STAS-GORBUK","OBJECT_ID":"2025-276W","EPOCH":"2026-07-16T05:42:54.925344","CLASSIFICATION_TYPE":"U","MEAN_MOTION":15.19664199,"ECCENTRICITY":0.00036603,"INCLINATION":97.4238,"RA_OF_ASC_NODE":270.288,"ARG_OF_PERICENTER":242.831,"MEAN_ANOMALY":117.2552,"EPHEMERIS_TYPE":0,"NORAD_CAT_ID":66686,"ELEMENT_SET_NO":999,"REV_AT_EPOCH":3482,"BSTAR":0.00012956844,"MEAN_MOTION_DOT":0.00002695,"MEAN_MOTION_DDOT":0},{"OBJECT_NAME":"LEMUR-2-TEODOR","OBJECT_ID":"2025-276DG","EPOCH":"2026-07-16T04:33:35.087616","CLASSIFICATION_TYPE":"U","MEAN_MOTION":15.21342759,"ECCENTRICITY":0.00021977,"INCLINATION":97.4143,"RA_OF_ASC_NODE":270.5138,"ARG_OF_PERICENTER":87.7536,"MEAN_ANOMALY":272.3951,"EPHEMERIS_TYPE":0,"NORAD_CAT_ID":66768,"ELEMENT_SET_NO":999,"REV_AT_EPOCH":3485,"BSTAR":0.00013037477,"MEAN_MOTION_DOT":0.00002851,"MEAN_MOTION_DDOT":0},{"OBJECT_NAME":"LEMUR-2-LAILA","OBJECT_ID":"2025-276DQ","EPOCH":"2026-07-16T03:49:53.178528","CLASSIFICATION_TYPE":"U","MEAN_MOTION":15.21569099,"ECCENTRICITY":0.00029211,"INCLINATION":97.4166,"RA_OF_ASC_NODE":270.623,"ARG_OF_PERICENTER":92.6922,"MEAN_ANOMALY":267.4649,"EPHEMERIS_TYPE":0,"NORAD_CAT_ID":66776,"ELEMENT_SET_NO":999,"REV_AT_EPOCH":3485,"BSTAR":0.00013618672,"MEAN_MOTION_DOT":0.00003001,"MEAN_MOTION_DDOT":0},{"OBJECT_NAME":"LEMUR-2-CELIJO-SB-PK","OBJECT_ID":"2025-276DW","EPOCH":"2026-07-16T04:26:51.254880","CLASSIFICATION_TYPE":"U","MEAN_MOTION":15.00290087,"ECCENTRICITY":0.00069255,"INCLINATION":97.5192,"RA_OF_ASC_NODE":267.0056,"ARG_OF_PERICENTER":61.9431,"MEAN_ANOMALY":298.2493,"EPHEMERIS_TYPE":0,"NORAD_CAT_ID":66781,"ELEMENT_SET_NO":999,"REV_AT_EPOCH":2697,"BSTAR":0.00024295294,"MEAN_MOTION_DOT":0.00002988,"MEAN_MOTION_DDOT":0},{"OBJECT_NAME":"LEMUR-2-FINNIAN","OBJECT_ID":"2025-276DX","EPOCH":"2026-07-16T03:43:44.272992","CLASSIFICATION_TYPE":"U","MEAN_MOTION":15.00622308,"ECCENTRICITY":0.00070976,"INCLINATION":97.5343,"RA_OF_ASC_NODE":267.2469,"ARG_OF_PERICENTER":355.3535,"MEAN_ANOMALY":4.7622,"EPHEMERIS_TYPE":0,"NORAD_CAT_ID":66782,"ELEMENT_SET_NO":999,"REV_AT_EPOCH":2434,"BSTAR":0.00011978851,"MEAN_MOTION_DOT":0.00001457,"MEAN_MOTION_DDOT":0},{"OBJECT_NAME":"LEMUR-2-STARLIGHT","OBJECT_ID":"2025-276DY","EPOCH":"2026-07-16T03:16:58.154016","CLASSIFICATION_TYPE":"U","MEAN_MOTION":14.99362068,"ECCENTRICITY":0.00146822,"INCLINATION":97.5236,"RA_OF_ASC_NODE":266.7857,"ARG_OF_PERICENTER":44.7641,"MEAN_ANOMALY":315.4765,"EPHEMERIS_TYPE":0,"NORAD_CAT_ID":66783,"ELEMENT_SET_NO":999,"REV_AT_EPOCH":3453,"BSTAR":0.00030612057,"MEAN_MOTION_DOT":0.00003695,"MEAN_MOTION_DDOT":0},{"OBJECT_NAME":"LEMUR-2-TARTIFLETTE","OBJECT_ID":"2025-276DZ","EPOCH":"2026-07-16T03:14:40.829856","CLASSIFICATION_TYPE":"U","MEAN_MOTION":14.99346228,"ECCENTRICITY":0.00139321,"INCLINATION":97.5234,"RA_OF_ASC_NODE":266.7927,"ARG_OF_PERICENTER":52.8232,"MEAN_ANOMALY":307.4262,"EPHEMERIS_TYPE":0,"NORAD_CAT_ID":66784,"ELEMENT_SET_NO":999,"REV_AT_EPOCH":3453,"BSTAR":0.00028086,"MEAN_MOTION_DOT":0.00003383,"MEAN_MOTION_DDOT":0},{"OBJECT_NAME":"LEMUR-2-VUKASIN","OBJECT_ID":"2025-276EA","EPOCH":"2026-07-16T04:06:56.038752","CLASSIFICATION_TYPE":"U","MEAN_MOTION":15.00551009,"ECCENTRICITY":0.00028926,"INCLINATION":97.5222,"RA_OF_ASC_NODE":267.1884,"ARG_OF_PERICENTER":51.9297,"MEAN_ANOMALY":308.2188,"EPHEMERIS_TYPE":0,"NORAD_CAT_ID":66785,"ELEMENT_SET_NO":999,"REV_AT_EPOCH":3449,"BSTAR":0.00018216304,"MEAN_MOTION_DOT":0.00002241,"MEAN_MOTION_DDOT":0},{"OBJECT_NAME":"LEMUR-2-HOTSPUR-TOM","OBJECT_ID":"2025-276EB","EPOCH":"2026-07-16T04:42:48.994560","CLASSIFICATION_TYPE":"U","MEAN_MOTION":14.99246626,"ECCENTRICITY":0.00137457,"INCLINATION":97.5216,"RA_OF_ASC_NODE":266.8257,"ARG_OF_PERICENTER":44.1727,"MEAN_ANOMALY":316.0592,"EPHEMERIS_TYPE":0,"NORAD_CAT_ID":66786,"ELEMENT_SET_NO":999,"REV_AT_EPOCH":3447,"BSTAR":0.00023118768,"MEAN_MOTION_DOT":0.00002767,"MEAN_MOTION_DDOT":0}]}
